{
  "type": "FeatureCollection",
  "name": "rosario_batangas_dummy_parcels",
  "crs": {
    "type": "name",
    "properties": {
      "name": "urn:ogc:def:crs:OGC:1.3:CRS84"
    }
  },
  "properties": {
    "description": "Synthetic/dummy property parcel data for Rosario, Batangas \u2014 generated for iMAPS development and testing. Not sourced from an actual municipal tax map or cadastral survey.",
    "municipality": "Rosario",
    "province": "Batangas",
    "psgc_municipality_code": "0401021000",
    "generated": true
  },
  "features": [
    {
      "type": "Feature",
      "properties": {
        "property_index_number": "041021-001-02-035-0090",
        "parcel_code": "P-001",
        "lot_number": "LOT-001",
        "barangay": "Poblacion A",
        "tct_number": "TCT-T-100001",
        "tax_dec_number": "TD-2026-00001",
        "lot_area_sqm": 317.41,
        "sample_application_type": "Zoning Certification",
        "source": "DUMMY DATA \u2014 for development/testing only, not actual cadastral records"
      },
      "geometry": {
        "type": "Polygon",
        "coordinates": [
          [
            [121.20444506637749, 13.839995010688048],
            [121.20460510953272, 13.839995010688048],
            [121.20460510953272, 13.840155053843288],
            [121.20444506637749, 13.840155053843288],
            [121.20444506637749, 13.839995010688048]
          ]
        ]
      }
    },
    {
      "type": "Feature",
      "properties": {
        "property_index_number": "041021-001-01-036-0204",
        "parcel_code": "P-002",
        "lot_number": "LOT-002",
        "barangay": "Poblacion A",
        "tct_number": "TCT-T-100002",
        "tax_dec_number": "TD-2026-00002",
        "lot_area_sqm": 324.5,
        "sample_application_type": "Zoning Certification",
        "source": "DUMMY DATA \u2014 for development/testing only, not actual cadastral records"
      },
      "geometry": {
        "type": "Polygon",
        "coordinates": [
          [
            [121.20390017535516, 13.840014437674025],
            [121.204061996084, 13.840014437674025],
            [121.204061996084, 13.840176258402867],
            [121.20390017535516, 13.840176258402867],
            [121.20390017535516, 13.840014437674025]
          ]
        ]
      }
    },
    {
      "type": "Feature",
      "properties": {
        "property_index_number": "041021-002-03-028-0349",
        "parcel_code": "P-003",
        "lot_number": "LOT-003",
        "barangay": "Poblacion B",
        "tct_number": "TCT-T-100003",
        "tax_dec_number": "TD-2026-00003",
        "lot_area_sqm": 801.98,
        "sample_application_type": "Locational Clearance",
        "source": "DUMMY DATA \u2014 for development/testing only, not actual cadastral records"
      },
      "geometry": {
        "type": "Polygon",
        "coordinates": [
          [
            [121.20490737462468, 13.841720429638839],
            [121.2051617696247, 13.841720429638839],
            [121.2051617696247, 13.841974824638863],
            [121.20490737462468, 13.841974824638863],
            [121.20490737462468, 13.841720429638839]
          ]
        ]
      }
    },
    {
      "type": "Feature",
      "properties": {
        "property_index_number": "041021-002-07-007-0368",
        "parcel_code": "P-004",
        "lot_number": "LOT-004",
        "barangay": "Poblacion B",
        "tct_number": "TCT-T-100004",
        "tax_dec_number": "TD-2026-00004",
        "lot_area_sqm": 226.66,
        "sample_application_type": "Development Permit",
        "source": "DUMMY DATA \u2014 for development/testing only, not actual cadastral records"
      },
      "geometry": {
        "type": "Polygon",
        "coordinates": [
          [
            [121.20642286097285, 13.84107831987216],
            [121.20655810380117, 13.84107831987216],
            [121.20655810380117, 13.841213562700482],
            [121.20642286097285, 13.841213562700482],
            [121.20642286097285, 13.84107831987216]
          ]
        ]
      }
    },
    {
      "type": "Feature",
      "properties": {
        "property_index_number": "041021-003-07-006-0566",
        "parcel_code": "P-005",
        "lot_number": "LOT-005",
        "barangay": "Poblacion C",
        "tct_number": "TCT-T-100005",
        "tax_dec_number": "TD-2026-00005",
        "lot_area_sqm": 552.17,
        "sample_application_type": "Development Permit",
        "source": "DUMMY DATA \u2014 for development/testing only, not actual cadastral records"
      },
      "geometry": {
        "type": "Polygon",
        "coordinates": [
          [
            [121.20678365144249, 13.84331584090224],
            [121.20699473927766, 13.84331584090224],
            [121.20699473927766, 13.843526928737406],
            [121.20678365144249, 13.843526928737406],
            [121.20678365144249, 13.84331584090224]
          ]
        ]
      }
    },
    {
      "type": "Feature",
      "properties": {
        "property_index_number": "041021-003-02-003-0678",
        "parcel_code": "P-006",
        "lot_number": "LOT-006",
        "barangay": "Poblacion C",
        "tct_number": "TCT-T-100006",
        "tax_dec_number": "TD-2026-00006",
        "lot_area_sqm": 583.01,
        "sample_application_type": "Zoning Certification",
        "source": "DUMMY DATA \u2014 for development/testing only, not actual cadastral records"
      },
      "geometry": {
        "type": "Polygon",
        "coordinates": [
          [
            [121.20717666938934, 13.842747107945499],
            [121.20739357201252, 13.842747107945499],
            [121.20739357201252, 13.842964010568686],
            [121.20717666938934, 13.842964010568686],
            [121.20717666938934, 13.842747107945499]
          ]
        ]
      }
    },
    {
      "type": "Feature",
      "properties": {
        "property_index_number": "041021-003-07-018-0465",
        "parcel_code": "P-007",
        "lot_number": "LOT-007",
        "barangay": "Poblacion C",
        "tct_number": "TCT-T-100007",
        "tax_dec_number": "TD-2026-00007",
        "lot_area_sqm": 799.86,
        "sample_application_type": "Locational Clearance",
        "source": "DUMMY DATA \u2014 for development/testing only, not actual cadastral records"
      },
      "geometry": {
        "type": "Polygon",
        "coordinates": [
          [
            [121.20713892389487, 13.84382863529381],
            [121.20739298243122, 13.84382863529381],
            [121.20739298243122, 13.844082693830153],
            [121.20713892389487, 13.844082693830153],
            [121.20713892389487, 13.84382863529381]
          ]
        ]
      }
    },
    {
      "type": "Feature",
      "properties": {
        "property_index_number": "041021-004-02-039-0651",
        "parcel_code": "P-008",
        "lot_number": "LOT-008",
        "barangay": "Poblacion D",
        "tct_number": "TCT-T-100008",
        "tax_dec_number": "TD-2026-00008",
        "lot_area_sqm": 676.37,
        "sample_application_type": "Development Permit",
        "source": "DUMMY DATA \u2014 for development/testing only, not actual cadastral records"
      },
      "geometry": {
        "type": "Polygon",
        "coordinates": [
          [
            [121.20739371311561, 13.841248999693157],
            [121.20762733793066, 13.841248999693157],
            [121.20762733793066, 13.841482624508206],
            [121.20739371311561, 13.841482624508206],
            [121.20739371311561, 13.841248999693157]
          ]
        ]
      }
    },
    {
      "type": "Feature",
      "properties": {
        "property_index_number": "041021-004-09-015-0702",
        "parcel_code": "P-009",
        "lot_number": "LOT-009",
        "barangay": "Poblacion D",
        "tct_number": "TCT-T-100009",
        "tax_dec_number": "TD-2026-00009",
        "lot_area_sqm": 434.59,
        "sample_application_type": "Locational Clearance",
        "source": "DUMMY DATA \u2014 for development/testing only, not actual cadastral records"
      },
      "geometry": {
        "type": "Polygon",
        "coordinates": [
          [
            [121.2058965728141, 13.842393745726675],
            [121.20608384214846, 13.842393745726675],
            [121.20608384214846, 13.842581015061025],
            [121.2058965728141, 13.842581015061025],
            [121.2058965728141, 13.842393745726675]
          ]
        ]
      }
    },
    {
      "type": "Feature",
      "properties": {
        "property_index_number": "041021-004-05-005-0217",
        "parcel_code": "P-010",
        "lot_number": "LOT-010",
        "barangay": "Poblacion D",
        "tct_number": "TCT-T-100010",
        "tax_dec_number": "TD-2026-00010",
        "lot_area_sqm": 386.59,
        "sample_application_type": "Development Permit",
        "source": "DUMMY DATA \u2014 for development/testing only, not actual cadastral records"
      },
      "geometry": {
        "type": "Polygon",
        "coordinates": [
          [
            [121.20550798824483, 13.840898831729024],
            [121.20568461321857, 13.840898831729024],
            [121.20568461321857, 13.841075456702757],
            [121.20550798824483, 13.841075456702757],
            [121.20550798824483, 13.840898831729024]
          ]
        ]
      }
    },
    {
      "type": "Feature",
      "properties": {
        "property_index_number": "041021-005-08-010-0272",
        "parcel_code": "P-011",
        "lot_number": "LOT-011",
        "barangay": "Poblacion E",
        "tct_number": "TCT-T-100011",
        "tax_dec_number": "TD-2026-00011",
        "lot_area_sqm": 813.51,
        "sample_application_type": "Locational Clearance",
        "source": "DUMMY DATA \u2014 for development/testing only, not actual cadastral records"
      },
      "geometry": {
        "type": "Polygon",
        "coordinates": [
          [
            [121.20726958518749, 13.840009771041176],
            [121.20752580236946, 13.840009771041176],
            [121.20752580236946, 13.840265988223146],
            [121.20726958518749, 13.840265988223146],
            [121.20726958518749, 13.840009771041176]
          ]
        ]
      }
    },
    {
      "type": "Feature",
      "properties": {
        "property_index_number": "041021-005-07-038-0409",
        "parcel_code": "P-012",
        "lot_number": "LOT-012",
        "barangay": "Poblacion E",
        "tct_number": "TCT-T-100012",
        "tax_dec_number": "TD-2026-00012",
        "lot_area_sqm": 710.26,
        "sample_application_type": "Locational Clearance",
        "source": "DUMMY DATA \u2014 for development/testing only, not actual cadastral records"
      },
      "geometry": {
        "type": "Polygon",
        "coordinates": [
          [
            [121.20739722874487, 13.841615263822149],
            [121.20763663499312, 13.841615263822149],
            [121.20763663499312, 13.8418546700704],
            [121.20739722874487, 13.8418546700704],
            [121.20739722874487, 13.841615263822149]
          ]
        ]
      }
    },
    {
      "type": "Feature",
      "properties": {
        "property_index_number": "041021-005-01-008-0157",
        "parcel_code": "P-013",
        "lot_number": "LOT-013",
        "barangay": "Poblacion E",
        "tct_number": "TCT-T-100013",
        "tax_dec_number": "TD-2026-00013",
        "lot_area_sqm": 520.14,
        "sample_application_type": "Development Permit",
        "source": "DUMMY DATA \u2014 for development/testing only, not actual cadastral records"
      },
      "geometry": {
        "type": "Polygon",
        "coordinates": [
          [
            [121.20621255821527, 13.84238954031457],
            [121.20641743225406, 13.84238954031457],
            [121.20641743225406, 13.842594414353364],
            [121.20621255821527, 13.842594414353364],
            [121.20621255821527, 13.84238954031457]
          ]
        ]
      }
    },
    {
      "type": "Feature",
      "properties": {
        "property_index_number": "041021-006-08-034-0258",
        "parcel_code": "P-014",
        "lot_number": "LOT-014",
        "barangay": "Balibago",
        "tct_number": "TCT-T-100014",
        "tax_dec_number": "TD-2026-00014",
        "lot_area_sqm": 596.92,
        "sample_application_type": "Locational Clearance",
        "source": "DUMMY DATA \u2014 for development/testing only, not actual cadastral records"
      },
      "geometry": {
        "type": "Polygon",
        "coordinates": [
          [
            [121.22074456448308, 13.853179489640256],
            [121.22096403938696, 13.853179489640256],
            [121.22096403938696, 13.853398964544136],
            [121.22074456448308, 13.853398964544136],
            [121.22074456448308, 13.853179489640256]
          ]
        ]
      }
    },
    {
      "type": "Feature",
      "properties": {
        "property_index_number": "041021-006-05-022-0115",
        "parcel_code": "P-015",
        "lot_number": "LOT-015",
        "barangay": "Balibago",
        "tct_number": "TCT-T-100015",
        "tax_dec_number": "TD-2026-00015",
        "lot_area_sqm": 813.59,
        "sample_application_type": "Zoning Certification",
        "source": "DUMMY DATA \u2014 for development/testing only, not actual cadastral records"
      },
      "geometry": {
        "type": "Polygon",
        "coordinates": [
          [
            [121.21991554033906, 13.853412735340884],
            [121.22017177011884, 13.853412735340884],
            [121.22017177011884, 13.853668965120656],
            [121.21991554033906, 13.853668965120656],
            [121.21991554033906, 13.853412735340884]
          ]
        ]
      }
    },
    {
      "type": "Feature",
      "properties": {
        "property_index_number": "041021-006-05-033-0781",
        "parcel_code": "P-016",
        "lot_number": "LOT-016",
        "barangay": "Balibago",
        "tct_number": "TCT-T-100016",
        "tax_dec_number": "TD-2026-00016",
        "lot_area_sqm": 691.57,
        "sample_application_type": "Development Permit",
        "source": "DUMMY DATA \u2014 for development/testing only, not actual cadastral records"
      },
      "geometry": {
        "type": "Polygon",
        "coordinates": [
          [
            [121.21959161827613, 13.851856355590863],
            [121.21982785362047, 13.851856355590863],
            [121.21982785362047, 13.852092590935206],
            [121.21959161827613, 13.852092590935206],
            [121.21959161827613, 13.851856355590863]
          ]
        ]
      }
    },
    {
      "type": "Feature",
      "properties": {
        "property_index_number": "041021-007-04-010-0383",
        "parcel_code": "P-017",
        "lot_number": "LOT-017",
        "barangay": "Bagong Pook",
        "tct_number": "TCT-T-100017",
        "tax_dec_number": "TD-2026-00017",
        "lot_area_sqm": 629.21,
        "sample_application_type": "Development Permit",
        "source": "DUMMY DATA \u2014 for development/testing only, not actual cadastral records"
      },
      "geometry": {
        "type": "Polygon",
        "coordinates": [
          [
            [121.21148266792319, 13.833998889258366],
            [121.21170800082548, 13.833998889258366],
            [121.21170800082548, 13.834224222160655],
            [121.21148266792319, 13.834224222160655],
            [121.21148266792319, 13.833998889258366]
          ]
        ]
      }
    },
    {
      "type": "Feature",
      "properties": {
        "property_index_number": "041021-007-06-032-0020",
        "parcel_code": "P-018",
        "lot_number": "LOT-018",
        "barangay": "Bagong Pook",
        "tct_number": "TCT-T-100018",
        "tax_dec_number": "TD-2026-00018",
        "lot_area_sqm": 838.87,
        "sample_application_type": "Zoning Certification",
        "source": "DUMMY DATA \u2014 for development/testing only, not actual cadastral records"
      },
      "geometry": {
        "type": "Polygon",
        "coordinates": [
          [
            [121.21333721217457, 13.834230409175678],
            [121.21359739230914, 13.834230409175678],
            [121.21359739230914, 13.834490589310242],
            [121.21333721217457, 13.834490589310242],
            [121.21333721217457, 13.834230409175678]
          ]
        ]
      }
    },
    {
      "type": "Feature",
      "properties": {
        "property_index_number": "041021-008-02-006-0750",
        "parcel_code": "P-019",
        "lot_number": "LOT-019",
        "barangay": "Alupay",
        "tct_number": "TCT-T-100019",
        "tax_dec_number": "TD-2026-00019",
        "lot_area_sqm": 575.52,
        "sample_application_type": "Locational Clearance",
        "source": "DUMMY DATA \u2014 for development/testing only, not actual cadastral records"
      },
      "geometry": {
        "type": "Polygon",
        "coordinates": [
          [
            [121.19531486236124, 13.820110604514934],
            [121.19553036719341, 13.820110604514934],
            [121.19553036719341, 13.820326109347093],
            [121.19531486236124, 13.820326109347093],
            [121.19531486236124, 13.820110604514934]
          ]
        ]
      }
    },
    {
      "type": "Feature",
      "properties": {
        "property_index_number": "041021-008-08-036-0170",
        "parcel_code": "P-020",
        "lot_number": "LOT-020",
        "barangay": "Alupay",
        "tct_number": "TCT-T-100020",
        "tax_dec_number": "TD-2026-00020",
        "lot_area_sqm": 244.32,
        "sample_application_type": "Development Permit",
        "source": "DUMMY DATA \u2014 for development/testing only, not actual cadastral records"
      },
      "geometry": {
        "type": "Polygon",
        "coordinates": [
          [
            [121.19622791217124, 13.822363747143688],
            [121.19636832484592, 13.822363747143688],
            [121.19636832484592, 13.822504159818374],
            [121.19622791217124, 13.822504159818374],
            [121.19622791217124, 13.822363747143688]
          ]
        ]
      }
    },
    {
      "type": "Feature",
      "properties": {
        "property_index_number": "041021-008-09-013-0731",
        "parcel_code": "P-021",
        "lot_number": "LOT-021",
        "barangay": "Alupay",
        "tct_number": "TCT-T-100021",
        "tax_dec_number": "TD-2026-00021",
        "lot_area_sqm": 308.85,
        "sample_application_type": "Zoning Certification",
        "source": "DUMMY DATA \u2014 for development/testing only, not actual cadastral records"
      },
      "geometry": {
        "type": "Polygon",
        "coordinates": [
          [
            [121.19589047863953, 13.822038363942191],
            [121.19604834900166, 13.822038363942191],
            [121.19604834900166, 13.822196234304322],
            [121.19589047863953, 13.822196234304322],
            [121.19589047863953, 13.822038363942191]
          ]
        ]
      }
    },
    {
      "type": "Feature",
      "properties": {
        "property_index_number": "041021-009-04-005-0347",
        "parcel_code": "P-022",
        "lot_number": "LOT-022",
        "barangay": "Antipolo",
        "tct_number": "TCT-T-100022",
        "tax_dec_number": "TD-2026-00022",
        "lot_area_sqm": 240.75,
        "sample_application_type": "Development Permit",
        "source": "DUMMY DATA \u2014 for development/testing only, not actual cadastral records"
      },
      "geometry": {
        "type": "Polygon",
        "coordinates": [
          [
            [121.18618303600026, 13.858744608728886],
            [121.18632241904596, 13.858744608728886],
            [121.18632241904596, 13.858883991774603],
            [121.18618303600026, 13.858883991774603],
            [121.18618303600026, 13.858744608728886]
          ]
        ]
      }
    },
    {
      "type": "Feature",
      "properties": {
        "property_index_number": "041021-009-01-015-0070",
        "parcel_code": "P-023",
        "lot_number": "LOT-023",
        "barangay": "Antipolo",
        "tct_number": "TCT-T-100023",
        "tax_dec_number": "TD-2026-00023",
        "lot_area_sqm": 155.39,
        "sample_application_type": "Zoning Certification",
        "source": "DUMMY DATA \u2014 for development/testing only, not actual cadastral records"
      },
      "geometry": {
        "type": "Polygon",
        "coordinates": [
          [
            [121.18640933061751, 13.85910577484155],
            [121.18652131006895, 13.85910577484155],
            [121.18652131006895, 13.859217754292997],
            [121.18640933061751, 13.859217754292997],
            [121.18640933061751, 13.85910577484155]
          ]
        ]
      }
    },
    {
      "type": "Feature",
      "properties": {
        "property_index_number": "041021-009-04-035-0136",
        "parcel_code": "P-024",
        "lot_number": "LOT-024",
        "barangay": "Antipolo",
        "tct_number": "TCT-T-100024",
        "tax_dec_number": "TD-2026-00024",
        "lot_area_sqm": 651.73,
        "sample_application_type": "Development Permit",
        "source": "DUMMY DATA \u2014 for development/testing only, not actual cadastral records"
      },
      "geometry": {
        "type": "Polygon",
        "coordinates": [
          [
            [121.18529934895919, 13.857597907105747],
            [121.18552867884704, 13.857597907105747],
            [121.18552867884704, 13.857827236993584],
            [121.18529934895919, 13.857827236993584],
            [121.18529934895919, 13.857597907105747]
          ]
        ]
      }
    },
    {
      "type": "Feature",
      "properties": {
        "property_index_number": "041021-010-02-007-0675",
        "parcel_code": "P-025",
        "lot_number": "LOT-025",
        "barangay": "Leviste (Tubahan)",
        "tct_number": "TCT-T-100025",
        "tax_dec_number": "TD-2026-00025",
        "lot_area_sqm": 455.29,
        "sample_application_type": "Zoning Certification",
        "source": "DUMMY DATA \u2014 for development/testing only, not actual cadastral records"
      },
      "geometry": {
        "type": "Polygon",
        "coordinates": [
          [
            [121.22402308014024, 13.825133153038587],
            [121.22421475751743, 13.825133153038587],
            [121.22421475751743, 13.825324830415786],
            [121.22402308014024, 13.825324830415786],
            [121.22402308014024, 13.825133153038587]
          ]
        ]
      }
    },
    {
      "type": "Feature",
      "properties": {
        "property_index_number": "041021-010-02-004-0413",
        "parcel_code": "P-026",
        "lot_number": "LOT-026",
        "barangay": "Leviste (Tubahan)",
        "tct_number": "TCT-T-100026",
        "tax_dec_number": "TD-2026-00026",
        "lot_area_sqm": 696.81,
        "sample_application_type": "Locational Clearance",
        "source": "DUMMY DATA \u2014 for development/testing only, not actual cadastral records"
      },
      "geometry": {
        "type": "Polygon",
        "coordinates": [
          [
            [121.2239825096898, 13.825652171554749],
            [121.22421963831842, 13.825652171554749],
            [121.22421963831842, 13.825889300183368],
            [121.2239825096898, 13.825889300183368],
            [121.2239825096898, 13.825652171554749]
          ]
        ]
      }
    },
    {
      "type": "Feature",
      "properties": {
        "property_index_number": "041021-010-07-012-0286",
        "parcel_code": "P-027",
        "lot_number": "LOT-027",
        "barangay": "Leviste (Tubahan)",
        "tct_number": "TCT-T-100027",
        "tax_dec_number": "TD-2026-00027",
        "lot_area_sqm": 486.46,
        "sample_application_type": "Locational Clearance",
        "source": "DUMMY DATA \u2014 for development/testing only, not actual cadastral records"
      },
      "geometry": {
        "type": "Polygon",
        "coordinates": [
          [
            [121.22317156169555, 13.825146903971984],
            [121.2233696917551, 13.825146903971984],
            [121.2233696917551, 13.825345034031535],
            [121.22317156169555, 13.825345034031535],
            [121.22317156169555, 13.825146903971984]
          ]
        ]
      }
    },
    {
      "type": "Feature",
      "properties": {
        "property_index_number": "041021-011-01-035-0857",
        "parcel_code": "P-028",
        "lot_number": "LOT-028",
        "barangay": "Namuco",
        "tct_number": "TCT-T-100028",
        "tax_dec_number": "TD-2026-00028",
        "lot_area_sqm": 562.74,
        "sample_application_type": "Locational Clearance",
        "source": "DUMMY DATA \u2014 for development/testing only, not actual cadastral records"
      },
      "geometry": {
        "type": "Polygon",
        "coordinates": [
          [
            [121.21217749799, 13.865722842910888],
            [121.21239059663854, 13.865722842910888],
            [121.21239059663854, 13.865935941559432],
            [121.21217749799, 13.865935941559432],
            [121.21217749799, 13.865722842910888]
          ]
        ]
      }
    },
    {
      "type": "Feature",
      "properties": {
        "property_index_number": "041021-011-08-031-0219",
        "parcel_code": "P-029",
        "lot_number": "LOT-029",
        "barangay": "Namuco",
        "tct_number": "TCT-T-100029",
        "tax_dec_number": "TD-2026-00029",
        "lot_area_sqm": 274.73,
        "sample_application_type": "Locational Clearance",
        "source": "DUMMY DATA \u2014 for development/testing only, not actual cadastral records"
      },
      "geometry": {
        "type": "Polygon",
        "coordinates": [
          [
            [121.2121716397493, 13.867204653495078],
            [121.21232053465718, 13.867204653495078],
            [121.21232053465718, 13.867353548402969],
            [121.2121716397493, 13.867353548402969],
            [121.2121716397493, 13.867204653495078]
          ]
        ]
      }
    },
    {
      "type": "Feature",
      "properties": {
        "property_index_number": "041021-012-08-019-0434",
        "parcel_code": "P-030",
        "lot_number": "LOT-030",
        "barangay": "Mabato",
        "tct_number": "TCT-T-100030",
        "tax_dec_number": "TD-2026-00030",
        "lot_area_sqm": 348.9,
        "sample_application_type": "Development Permit",
        "source": "DUMMY DATA \u2014 for development/testing only, not actual cadastral records"
      },
      "geometry": {
        "type": "Polygon",
        "coordinates": [
          [
            [121.18257202936522, 13.830553022190823],
            [121.18273982369743, 13.830553022190823],
            [121.18273982369743, 13.830720816523037],
            [121.18257202936522, 13.830720816523037],
            [121.18257202936522, 13.830553022190823]
          ]
        ]
      }
    },
    {
      "type": "Feature",
      "properties": {
        "property_index_number": "041021-012-01-038-0754",
        "parcel_code": "P-031",
        "lot_number": "LOT-031",
        "barangay": "Mabato",
        "tct_number": "TCT-T-100031",
        "tax_dec_number": "TD-2026-00031",
        "lot_area_sqm": 372.53,
        "sample_application_type": "Locational Clearance",
        "source": "DUMMY DATA \u2014 for development/testing only, not actual cadastral records"
      },
      "geometry": {
        "type": "Polygon",
        "coordinates": [
          [
            [121.18007769879308, 13.831568533143166],
            [121.18025108215853, 13.831568533143166],
            [121.18025108215853, 13.831741916508612],
            [121.18007769879308, 13.831741916508612],
            [121.18007769879308, 13.831568533143166]
          ]
        ]
      }
    },
    {
      "type": "Feature",
      "properties": {
        "property_index_number": "041021-013-09-011-0059",
        "parcel_code": "P-032",
        "lot_number": "LOT-032",
        "barangay": "San Carlos",
        "tct_number": "TCT-T-100032",
        "tax_dec_number": "TD-2026-00032",
        "lot_area_sqm": 527.14,
        "sample_application_type": "Locational Clearance",
        "source": "DUMMY DATA \u2014 for development/testing only, not actual cadastral records"
      },
      "geometry": {
        "type": "Polygon",
        "coordinates": [
          [
            [121.17634940877326, 13.845568371808607],
            [121.17655565679348, 13.845568371808607],
            [121.17655565679348, 13.845774619828838],
            [121.17634940877326, 13.845774619828838],
            [121.17634940877326, 13.845568371808607]
          ]
        ]
      }
    },
    {
      "type": "Feature",
      "properties": {
        "property_index_number": "041021-013-04-026-0123",
        "parcel_code": "P-033",
        "lot_number": "LOT-033",
        "barangay": "San Carlos",
        "tct_number": "TCT-T-100033",
        "tax_dec_number": "TD-2026-00033",
        "lot_area_sqm": 200.97,
        "sample_application_type": "Locational Clearance",
        "source": "DUMMY DATA \u2014 for development/testing only, not actual cadastral records"
      },
      "geometry": {
        "type": "Polygon",
        "coordinates": [
          [
            [121.17484188995562, 13.847990353593538],
            [121.1749692380406, 13.847990353593538],
            [121.1749692380406, 13.848117701678525],
            [121.17484188995562, 13.848117701678525],
            [121.17484188995562, 13.847990353593538]
          ]
        ]
      }
    },
    {
      "type": "Feature",
      "properties": {
        "property_index_number": "041021-013-09-021-0958",
        "parcel_code": "P-034",
        "lot_number": "LOT-034",
        "barangay": "San Carlos",
        "tct_number": "TCT-T-100034",
        "tax_dec_number": "TD-2026-00034",
        "lot_area_sqm": 211.49,
        "sample_application_type": "Locational Clearance",
        "source": "DUMMY DATA \u2014 for development/testing only, not actual cadastral records"
      },
      "geometry": {
        "type": "Polygon",
        "coordinates": [
          [
            [121.17475390565627, 13.847171437841938],
            [121.17488454431745, 13.847171437841938],
            [121.17488454431745, 13.847302076503103],
            [121.17475390565627, 13.847302076503103],
            [121.17475390565627, 13.847171437841938]
          ]
        ]
      }
    },
    {
      "type": "Feature",
      "properties": {
        "property_index_number": "041021-014-05-030-0324",
        "parcel_code": "P-035",
        "lot_number": "LOT-035",
        "barangay": "Maalas-as",
        "tct_number": "TCT-T-100035",
        "tax_dec_number": "TD-2026-00035",
        "lot_area_sqm": 653.77,
        "sample_application_type": "Locational Clearance",
        "source": "DUMMY DATA \u2014 for development/testing only, not actual cadastral records"
      },
      "geometry": {
        "type": "Polygon",
        "coordinates": [
          [
            [121.20777251327853, 13.810101213596017],
            [121.20800220180219, 13.810101213596017],
            [121.20800220180219, 13.810330902119677],
            [121.20777251327853, 13.810330902119677],
            [121.20777251327853, 13.810101213596017]
          ]
        ]
      }
    },
    {
      "type": "Feature",
      "properties": {
        "property_index_number": "041021-014-02-035-0219",
        "parcel_code": "P-036",
        "lot_number": "LOT-036",
        "barangay": "Maalas-as",
        "tct_number": "TCT-T-100036",
        "tax_dec_number": "TD-2026-00036",
        "lot_area_sqm": 897.07,
        "sample_application_type": "Zoning Certification",
        "source": "DUMMY DATA \u2014 for development/testing only, not actual cadastral records"
      },
      "geometry": {
        "type": "Polygon",
        "coordinates": [
          [
            [121.20956083616275, 13.810740329408059],
            [121.20982989048235, 13.810740329408059],
            [121.20982989048235, 13.81100938372765],
            [121.20956083616275, 13.81100938372765],
            [121.20956083616275, 13.810740329408059]
          ]
        ]
      }
    },
    {
      "type": "Feature",
      "properties": {
        "property_index_number": "041021-014-04-024-0292",
        "parcel_code": "P-037",
        "lot_number": "LOT-037",
        "barangay": "Maalas-as",
        "tct_number": "TCT-T-100037",
        "tax_dec_number": "TD-2026-00037",
        "lot_area_sqm": 201.59,
        "sample_application_type": "Zoning Certification",
        "source": "DUMMY DATA \u2014 for development/testing only, not actual cadastral records"
      },
      "geometry": {
        "type": "Polygon",
        "coordinates": [
          [
            [121.20768325431962, 13.809833597525833],
            [121.20781079869016, 13.809833597525833],
            [121.20781079869016, 13.809961141896364],
            [121.20768325431962, 13.809961141896364],
            [121.20768325431962, 13.809833597525833]
          ]
        ]
      }
    },
    {
      "type": "Feature",
      "properties": {
        "property_index_number": "041021-015-01-036-0307",
        "parcel_code": "P-038",
        "lot_number": "LOT-038",
        "barangay": "Quilib",
        "tct_number": "TCT-T-100038",
        "tax_dec_number": "TD-2026-00038",
        "lot_area_sqm": 640.48,
        "sample_application_type": "Locational Clearance",
        "source": "DUMMY DATA \u2014 for development/testing only, not actual cadastral records"
      },
      "geometry": {
        "type": "Polygon",
        "coordinates": [
          [
            [121.22754802821382, 13.871221362320101],
            [121.22777537016796, 13.871221362320101],
            [121.22777537016796, 13.871448704274252],
            [121.22754802821382, 13.871448704274252],
            [121.22754802821382, 13.871221362320101]
          ]
        ]
      }
    },
    {
      "type": "Feature",
      "properties": {
        "property_index_number": "041821-205-21-033-0407",
        "parcel_code": "P-039",
        "lot_number": "LOT-039",
        "barangay": "Quilib",
        "tct_number": "TCT-T-100039",
        "tax_dec_number": "TD-2026-00039",
        "lot_area_sqm": 706.81,
        "sample_application_type": "Locational Clearance",
        "source": "DUMMY DATA \u2014 for development/testing only, not actual cadastral records"
      },
      "geometry": {
        "type": "Polygon",
        "coordinates": [
          [
            [121.22724972607233, 13.87017398571578],
            [121.22748855016968, 13.87017398571578],
            [121.22748855016968, 13.87041280981314],
            [121.22724972607233, 13.87041280981314],
            [121.22724972607233, 13.87017398571578]
          ]
        ]
      }
    },
    {
      "type": "Feature",
      "properties": {
        "property_index_number": "041021-015-05-033-0501",
        "parcel_code": "P-040",
        "lot_number": "LOT-040",
        "barangay": "Quilib",
        "tct_number": "TCT-T-100040",
        "tax_dec_number": "TD-2026-00040",
        "lot_area_sqm": 625.68,
        "sample_application_type": "Locational Clearance",
        "source": "DUMMY DATA \u2014 for development/testing only, not actual cadastral records"
      },
      "geometry": {
        "type": "Polygon",
        "coordinates": [
          [
            [121.22519844197154, 13.871540486595988],
            [121.22542314190241, 13.871540486595988],
            [121.22542314190241, 13.871765186526842],
            [121.22519844197154, 13.871765186526842],
            [121.22519844197154, 13.871540486595988]
          ]
        ]
      }
    }
  ]
}